STARLINK-5577           
1 55751U 23028L   26068.86151139  .00000480  00000+0  48002-4 0  9993
2 55751  69.9992 244.1117 0002156 271.7261  88.3651 14.98327635166067
LEMUR-2-ALISIA          
1 62706U 25009DB  26068.73770453  .00009177  00000+0  72005-3 0  9995
2 62706  97.7037 151.6973 0006582 159.9869 200.1615 15.01147598 85230
